[{"OBJECT_NAME":"STARLINK-32076","OBJECT_ID":"2024-136X","EPOCH":"2026-03-09T09:29:48.914592","MEAN_MOTION":15.30191806,"ECCENTRICITY":0.00010419,"INCLINATION":53.1608,"RA_OF_ASC_NODE":76.7329,"ARG_OF_PERICENTER":104.3271,"MEAN_ANOMALY":255.7846,"EPHEMERIS_TYPE":0,"CLASSIFICATION_TYPE":"U","NORAD_CAT_ID":60350,"ELEMENT_SET_NO":999,"REV_AT_EPOCH":8962,"BSTAR":1.9949131e-5,"MEAN_MOTION_DOT":2.32e-6,"MEAN_MOTION_DDOT":0},{"OBJECT_NAME":"CZ-4C DEB","OBJECT_ID":"2007-055C","EPOCH":"2026-03-09T22:46:15.652128","MEAN_MOTION":15.30523578,"ECCENTRICITY":0.00469709,"INCLINATION":97.8668,"RA_OF_ASC_NODE":247.2248,"ARG_OF_PERICENTER":277.363,"MEAN_ANOMALY":82.2273,"EPHEMERIS_TYPE":0,"CLASSIFICATION_TYPE":"U","NORAD_CAT_ID":35248,"ELEMENT_SET_NO":999,"REV_AT_EPOCH":97353,"BSTAR":0.0018809895,"MEAN_MOTION_DOT":0.000577,"MEAN_MOTION_DDOT":0}]
